IRIDIUM 33 DEB          
1 38237U 97051ZM  17345.53190814  .00005863  00000-0  82951-3 0  9996
2 38237  86.3791 182.7064 0015817 126.7958 264.0360 14.76870317778239
